[{"OBJECT_NAME":"STARLINK-5870","OBJECT_ID":"2023-094E","EPOCH":"2026-03-09T22:00:01.999584","MEAN_MOTION":15.17627089,"ECCENTRICITY":0.000139,"INCLINATION":43.0022,"RA_OF_ASC_NODE":28.7454,"ARG_OF_PERICENTER":216.1153,"MEAN_ANOMALY":310.5212,"EPHEMERIS_TYPE":0,"CLASSIFICATION_TYPE":"U","NORAD_CAT_ID":57222,"ELEMENT_SET_NO":999,"REV_AT_EPOCH":577,"BSTAR":0.059561857,"MEAN_MOTION_DOT":0.01324539,"MEAN_MOTION_DDOT":0},{"OBJECT_NAME":"SIMSAT 1","OBJECT_ID":"2000-026A","EPOCH":"2026-03-09T17:22:54.646176","MEAN_MOTION":15.27666538,"ECCENTRICITY":0.00084816,"INCLINATION":86.3501,"RA_OF_ASC_NODE":180.5413,"ARG_OF_PERICENTER":14.8337,"MEAN_ANOMALY":345.3157,"EPHEMERIS_TYPE":0,"CLASSIFICATION_TYPE":"U","NORAD_CAT_ID":26365,"ELEMENT_SET_NO":999,"REV_AT_EPOCH":42720,"BSTAR":0.00013499313,"MEAN_MOTION_DOT":3.69e-5,"MEAN_MOTION_DDOT":0}]
